{
  "type": "FeatureCollection",
  "features": [
    {
      "type": "Feature",
      "properties": { "name": "Ranchi" },
      "geometry": {
        "type": "Polygon",
        "coordinates": [[[85.0, 23.5], [85.5, 23.5], [85.5, 23.0], [85.0, 23.0], [85.0, 23.5]]]
      }
    },
    {
      "type": "Feature",
      "properties": { "name": "Jamshedpur" },
      "geometry": {
        "type": "Polygon",
        "coordinates": [[[86.0, 22.8], [86.5, 22.8], [86.5, 22.3], [86.0, 22.3], [86.0, 22.8]]]
      }
    },
    {
      "type": "Feature",
      "properties": { "name": "Dhanbad" },
      "geometry": {
        "type": "Polygon",
        "coordinates": [[[86.3, 23.8], [86.8, 23.8], [86.8, 23.3], [86.3, 23.3], [86.3, 23.8]]]
      }
    },
    {
      "type": "Feature",
      "properties": { "name": "Bokaro" },
      "geometry": {
        "type": "Polygon",
        "coordinates": [[[85.8, 23.7], [86.2, 23.7], [86.2, 23.2], [85.8, 23.2], [85.8, 23.7]]]
      }
    },
    {
      "type": "Feature",
      "properties": { "name": "Hazaribagh" },
      "geometry": {
        "type": "Polygon",
        "coordinates": [[[85.2, 24.2], [85.8, 24.2], [85.8, 23.7], [85.2, 23.7], [85.2, 24.2]]]
      }
    },
    {
      "type": "Feature",
      "properties": { "name": "Deoghar" },
      "geometry": {
        "type": "Polygon",
        "coordinates": [[[86.7, 24.5], [87.2, 24.5], [87.2, 24.0], [86.7, 24.0], [86.7, 24.5]]]
      }
    },
    {
      "type": "Feature",
      "properties": { "name": "Giridih" },
      "geometry": {
        "type": "Polygon",
        "coordinates": [[[86.0, 24.2], [86.6, 24.2], [86.6, 23.7], [86.0, 23.7], [86.0, 24.2]]]
      }
    },
    {
      "type": "Feature",
      "properties": { "name": "Dumka" },
      "geometry": {
        "type": "Polygon",
        "coordinates": [[[87.2, 24.8], [87.8, 24.8], [87.8, 24.3], [87.2, 24.3], [87.2, 24.8]]]
      }
    },
    {
      "type": "Feature",
      "properties": { "name": "Chaibasa" },
      "geometry": {
        "type": "Polygon",
        "coordinates": [[[85.3, 22.3], [85.9, 22.3], [85.9, 21.8], [85.3, 21.8], [85.3, 22.3]]]
      }
    },
    {
      "type": "Feature",
      "properties": { "name": "Palamu" },
      "geometry": {
        "type": "Polygon",
        "coordinates": [[[83.8, 24.2], [84.3, 24.2], [84.3, 23.7], [83.8, 23.7], [83.8, 24.2]]]
      }
    },
    {
      "type": "Feature",
      "properties": { "name": "Garhwa" },
      "geometry": {
        "type": "Polygon",
        "coordinates": [[[83.8, 24.6], [84.3, 24.6], [84.3, 24.1], [83.8, 24.1], [83.8, 24.6]]]
      }
    },
    {
      "type": "Feature",
      "properties": { "name": "Lohardaga" },
      "geometry": {
        "type": "Polygon",
        "coordinates": [[[84.6, 23.4], [85.0, 23.4], [85.0, 22.9], [84.6, 22.9], [84.6, 23.4]]]
      }
    },
    {
      "type": "Feature",
      "properties": { "name": "Simdega" },
      "geometry": {
        "type": "Polygon",
        "coordinates": [[[84.4, 22.3], [84.9, 22.3], [84.9, 21.8], [84.4, 21.8], [84.4, 22.3]]]
      }
    },
    {
      "type": "Feature",
      "properties": { "name": "Chatra" },
      "geometry": {
        "type": "Polygon",
        "coordinates": [[[84.8, 24.6], [85.3, 24.6], [85.3, 24.1], [84.8, 24.1], [84.8, 24.6]]]
      }
    },
    {
      "type": "Feature",
      "properties": { "name": "Koderma" },
      "geometry": {
        "type": "Polygon",
        "coordinates": [[[85.5, 24.5], [86.0, 24.5], [86.0, 24.0], [85.5, 24.0], [85.5, 24.5]]]
      }
    },
    {
      "type": "Feature",
      "properties": { "name": "Ramgarh" },
      "geometry": {
        "type": "Polygon",
        "coordinates": [[[85.5, 23.6], [86.0, 23.6], [86.0, 23.1], [85.5, 23.1], [85.5, 23.6]]]
      }
    },
    {
      "type": "Feature",
      "properties": { "name": "Khunti" },
      "geometry": {
        "type": "Polygon",
        "coordinates": [[[85.1, 23.0], [85.5, 23.0], [85.5, 22.5], [85.1, 22.5], [85.1, 23.0]]]
      }
    },
    {
      "type": "Feature",
      "properties": { "name": "Saraikela" },
      "geometry": {
        "type": "Polygon",
        "coordinates": [[[85.8, 22.6], [86.3, 22.6], [86.3, 22.1], [85.8, 22.1], [85.8, 22.6]]]
      }
    },
    {
      "type": "Feature",
      "properties": { "name": "Godda" },
      "geometry": {
        "type": "Polygon",
        "coordinates": [[[87.6, 25.0], [88.1, 25.0], [88.1, 24.5], [87.6, 24.5], [87.6, 25.0]]]
      }
    },
    {
      "type": "Feature",
      "properties": { "name": "Sahebganj" },
      "geometry": {
        "type": "Polygon",
        "coordinates": [[[87.8, 25.2], [88.3, 25.2], [88.3, 24.7], [87.8, 24.7], [87.8, 25.2]]]
      }
    },
    {
      "type": "Feature",
      "properties": { "name": "Pakur" },
      "geometry": {
        "type": "Polygon",
        "coordinates": [[[87.7, 24.7], [88.2, 24.7], [88.2, 24.2], [87.7, 24.2], [87.7, 24.7]]]
      }
    },
    {
      "type": "Feature",
      "properties": { "name": "Jamtara" },
      "geometry": {
        "type": "Polygon",
        "coordinates": [[[86.8, 23.9], [87.3, 23.9], [87.3, 23.4], [86.8, 23.4], [86.8, 23.9]]]
      }
    },
    {
      "type": "Feature",
      "properties": { "name": "Latehar" },
      "geometry": {
        "type": "Polygon",
        "coordinates": [[[83.9, 23.6], [84.4, 23.6], [84.4, 23.1], [83.9, 23.1], [83.9, 23.6]]]
      }
    },
    {
      "type": "Feature",
      "properties": { "name": "Gumla" },
      "geometry": {
        "type": "Polygon",
        "coordinates": [[[84.5, 22.8], [85.0, 22.8], [85.0, 22.3], [84.5, 22.3], [84.5, 22.8]]]
      }
    }
  ]
}
